[{"OBJECT_NAME":"STARLINK-6289","OBJECT_ID":"2023-061AL","EPOCH":"2026-03-09T09:47:43.071360","MEAN_MOTION":15.02531105,"ECCENTRICITY":0.00011609,"INCLINATION":43.0005,"RA_OF_ASC_NODE":185.8692,"ARG_OF_PERICENTER":251.5737,"MEAN_ANOMALY":108.4979,"EPHEMERIS_TYPE":0,"CLASSIFICATION_TYPE":"U","NORAD_CAT_ID":56408,"ELEMENT_SET_NO":999,"REV_AT_EPOCH":15686,"BSTAR":-1.8500547e-5,"MEAN_MOTION_DOT":-4.53e-6,"MEAN_MOTION_DDOT":0},{"OBJECT_NAME":"CZ-6A DEB","OBJECT_ID":"2024-140AET","EPOCH":"2026-03-09T12:52:08.504256","MEAN_MOTION":14.9565513,"ECCENTRICITY":0.00551091,"INCLINATION":88.9325,"RA_OF_ASC_NODE":275.873,"ARG_OF_PERICENTER":183.9615,"MEAN_ANOMALY":176.1189,"EPHEMERIS_TYPE":0,"CLASSIFICATION_TYPE":"U","NORAD_CAT_ID":64653,"ELEMENT_SET_NO":999,"REV_AT_EPOCH":7426,"BSTAR":0.0038297655,"MEAN_MOTION_DOT":0.00044109,"MEAN_MOTION_DDOT":0}]
